OBJECT_NAME,OBJECT_ID,EPOCH,MEAN_MOTION,ECCENTRICITY,INCLINATION,RA_OF_ASC_NODE,ARG_OF_PERICENTER,MEAN_ANOMALY,EPHEMERIS_TYPE,CLASSIFICATION_TYPE,NORAD_CAT_ID,ELEMENT_SET_NO,REV_AT_EPOCH,BSTAR,MEAN_MOTION_DOT,MEAN_MOTION_DDOT
IRIDIUM 106,2017-003A,2026-07-23T09:00:10.284192,14.34217571,.0002386,86.3934,73.4226,92.8565,267.2904,0,U,41917,999,49839,-.35734E-5,.1E-6,0
IRIDIUM 103,2017-003B,2026-07-23T13:43:18.202080,14.34217603,.0001987,86.3934,73.2401,88.2631,271.8792,0,U,41918,999,49844,-.16459E-5,.15E-6,0
IRIDIUM 109,2017-003C,2026-07-23T13:52:26.260608,14.34217800,.0002143,86.3935,73.2974,86.2009,273.9431,0,U,41919,999,49841,.18596E-4,.72E-6,0
IRIDIUM 102,2017-003D,2026-07-23T11:26:18.074112,14.34218621,.0002205,86.3931,73.2627,85.4059,274.7389,0,U,41920,999,49848,.47525E-4,.153E-5,0
IRIDIUM 105,2017-003E,2026-07-23T02:04:20.777376,14.34219095,.0002007,86.3941,41.8534,82.0073,278.1351,0,U,41921,999,50028,.6204916E-4,.194E-5,0
IRIDIUM 104,2017-003F,2026-07-23T08:23:38.173632,14.34217860,.0001891,86.3933,73.3589,82.2208,277.9202,0,U,41922,999,49845,.10411E-4,.49E-6,0
IRIDIUM 114,2017-003G,2026-07-23T08:32:46.150080,14.34218181,.0002029,86.3934,73.3394,86.6150,273.5278,0,U,41923,999,49843,.9625E-5,.47E-6,0
IRIDIUM 108,2017-003H,2026-07-23T00:51:10.456416,14.34217910,.00021964,86.3935,41.7625,86.1333,274.0114,0,U,41924,999,50024,.14679561E-4,.61E-6,0
IRIDIUM 112,2017-003J,2026-07-23T08:14:30.253344,14.34217714,.000211,86.3930,73.1851,84.3278,275.8159,0,U,41925,999,49845,.99655E-5,.48E-6,0
IRIDIUM 111,2017-003K,2026-07-23T14:38:06.249120,14.34217440,.0002036,86.3927,73.1446,86.1099,274.0330,0,U,41926,999,49847,-.39985E-5,.9E-7,0
IRIDIUM 113,2017-039A,2026-07-23T17:30:11.181312,14.34217493,.0002032,86.3992,306.9075,94.0203,266.1225,0,U,42803,999,47642,-.26146E-5,.12E-6,0
IRIDIUM 123,2017-039B,2026-07-23T08:27:06.935040,14.34218274,.0002198,86.3999,338.5207,96.8409,263.3037,0,U,42804,999,47513,.3618E-4,.121E-5,0
IRIDIUM 120,2017-039C,2026-07-23T17:21:03.195360,14.34217976,.0002442,86.3981,306.6878,96.9951,263.1523,0,U,42805,999,47641,.73469E-5,.4E-6,0
IRIDIUM 115,2017-039D,2026-07-23T17:24:23.637312,14.43281237,.0002374,86.4518,306.8206,99.2799,260.8670,0,U,42806,999,47953,.73075E-4,.266E-5,0
IRIDIUM 118,2017-039E,2026-07-23T19:15:34.913088,14.34217694,.0002091,86.4000,338.3309,92.4323,267.7112,0,U,42807,999,47519,-.60701E-5,.3E-7,0
IRIDIUM 117,2017-039F,2026-07-23T19:42:58.921056,14.34217600,.0002177,86.4000,338.2800,94.7808,265.3636,0,U,42808,999,47522,-.69419E-6,.18E-6,0
IRIDIUM 126,2017-039G,2026-07-23T08:36:14.939136,14.34218196,.0002078,86.4000,338.5251,94.6702,265.4731,0,U,42809,999,47513,.60872E-4,.19E-5,0
IRIDIUM 124,2017-039H,2026-07-23T15:49:03.407808,14.43276935,.0002298,86.4474,275.1099,96.7036,263.4427,0,U,42810,999,48037,.5607E-4,.209E-5,0
IRIDIUM 128,2017-039J,2026-07-23T10:03:22.733568,14.34219571,.0002309,86.3974,9.9981,92.9043,267.2417,0,U,42811,999,47517,.73289E-4,.225E-5,0
IRIDIUM 121,2017-039K,2026-07-23T09:03:38.953152,14.34217861,.0002264,86.4002,338.5452,93.2203,266.9252,0,U,42812,999,47501,.69815E-5,.39E-6,0
IRIDIUM 133,2017-061A,2026-07-23T20:51:50.717664,14.34218214,.0002194,86.3976,9.9286,91.8758,268.2689,0,U,42955,999,46003,.48515E-4,.156E-5,0
IRIDIUM 100,2017-061B,2026-07-23T10:39:54.698112,14.34218477,.0002222,86.3974,10.0239,91.0881,269.0569,0,U,42956,999,45997,.18137E-4,.71E-6,0
IRIDIUM 122,2017-061C,2026-07-23T18:16:34.749984,14.34218291,.0002124,86.3975,9.8916,92.3061,267.8378,0,U,42957,999,46002,.6703E-4,.207E-5,0
IRIDIUM 129,2017-061D,2026-07-23T20:33:35.098272,14.34217781,.0002043,86.3976,9.9191,87.3163,272.8267,0,U,42958,999,46005,.71906E-4,.221E-5,0
IRIDIUM 119,2017-061E,2026-07-23T19:47:54.904128,14.34218314,.0002081,86.3975,9.9283,91.0072,269.1362,0,U,42959,999,46006,.57552E-4,.181E-5,0
IRIDIUM 107,2017-061F,2026-07-23T10:12:30.715200,14.34218460,.0002198,86.3978,10.1170,97.5071,262.6374,0,U,42960,999,46001,.47171E-4,.152E-5,0
IRIDIUM 132,2017-061G,2026-07-23T10:21:38.739168,14.34219067,.0002185,86.3975,10.0935,91.5087,268.6359,0,U,42961,999,46001,.64009E-4,.199E-5,0
IRIDIUM 136,2017-061H,2026-07-23T09:26:50.705088,14.34217979,.00022,86.3978,10.1160,90.7011,269.4437,0,U,42962,999,46002,.40084E-4,.132E-5,0
IRIDIUM 139,2017-061J,2026-07-23T09:35:58.672896,14.34219447,.0002268,86.3978,10.1762,91.8928,268.2528,0,U,42963,999,46003,.59893E-4,.188E-5,0
IRIDIUM 125,2017-061K,2026-07-23T10:58:10.573248,14.34219026,.0001769,86.3978,10.2140,100.7820,259.3575,0,U,42964,999,46005,.32911E-4,.112E-5,0
IRIDIUM 135,2017-083A,2026-07-23T17:02:47.190624,14.34217541,.0002129,86.3985,306.7498,95.3508,264.7931,0,U,43070,999,44938,-.41996E-5,.8E-7,0
