IRIDIUM 106             
1 41917U 17003A   26204.37511903  .00000010  00000+0 -35734-5 0  9994
2 41917  86.3934  73.4226 0002386  92.8565 267.2904 14.34217571498393
IRIDIUM 103             
1 41918U 17003B   26204.57173845  .00000015  00000+0 -16459-5 0  9994
2 41918  86.3934  73.2401 0001987  88.2631 271.8792 14.34217603498444
IRIDIUM 109             
1 41919U 17003C   26204.57808172  .00000072  00000+0  18596-4 0  9998
2 41919  86.3935  73.2974 0002143  86.2009 273.9431 14.34217800498412
IRIDIUM 102             
1 41920U 17003D   26204.47659808  .00000153  00000+0  47525-4 0  9993
2 41920  86.3931  73.2627 0002205  85.4059 274.7389 14.34218621498480
IRIDIUM 105             
1 41921U 17003E   26204.08635159  .00000194  00000+0  62049-4 0  9997
2 41921  86.3941  41.8534 0002007  82.0073 278.1351 14.34219095500284
IRIDIUM 104             
1 41922U 17003F   26204.34974738  .00000049  00000+0  10411-4 0  9991
2 41922  86.3933  73.3589 0001891  82.2208 277.9202 14.34217860498453
IRIDIUM 114             
1 41923U 17003G   26204.35608970  .00000047  00000+0  96250-5 0  9999
2 41923  86.3934  73.3394 0002029  86.6150 273.5278 14.34218181498437
IRIDIUM 108             
1 41924U 17003H   26204.03553769  .00000061  00000+0  14680-4 0  9992
2 41924  86.3935  41.7625 0002196  86.1333 274.0114 14.34217910500245
IRIDIUM 112             
1 41925U 17003J   26204.34340571  .00000048  00000+0  99655-5 0  9993
2 41925  86.3930  73.1851 0002110  84.3278 275.8159 14.34217714498454
IRIDIUM 111             
1 41926U 17003K   26204.60979455  .00000009  00000+0 -39985-5 0  9990
2 41926  86.3927  73.1446 0002036  86.1099 274.0330 14.34217440498479
IRIDIUM 113             
1 42803U 17039A   26204.72929608  .00000012  00000+0 -26146-5 0  9991
2 42803  86.3992 306.9075 0002032  94.0203 266.1225 14.34217493476426
IRIDIUM 123             
1 42804U 17039B   26204.35216360  .00000121  00000+0  36180-4 0  9993
2 42804  86.3999 338.5207 0002198  96.8409 263.3037 14.34218274475138
IRIDIUM 120             
1 42805U 17039C   26204.72295365  .00000040  00000+0  73469-5 0  9999
2 42805  86.3981 306.6878 0002442  96.9951 263.1523 14.34217976476413
IRIDIUM 115             
1 42806U 17039D   26204.72527358  .00000266  00000+0  73075-4 0  9992
2 42806  86.4518 306.8206 0002374  99.2799 260.8670 14.43281237479532
IRIDIUM 118             
1 42807U 17039E   26204.80248742  .00000003  00000+0 -60701-5 0  9992
2 42807  86.4000 338.3309 0002091  92.4323 267.7112 14.34217694475198
IRIDIUM 117             
1 42808U 17039F   26204.82151529  .00000018  00000+0 -69419-6 0  9993
2 42808  86.4000 338.2800 0002177  94.7808 265.3636 14.34217600475228
IRIDIUM 126             
1 42809U 17039G   26204.35850624  .00000190  00000+0  60872-4 0  9996
2 42809  86.4000 338.5251 0002078  94.6702 265.4731 14.34218196475132
IRIDIUM 124             
1 42810U 17039H   26204.65906722  .00000209  00000+0  56070-4 0  9998
2 42810  86.4474 275.1099 0002298  96.7036 263.4427 14.43276935480379
IRIDIUM 128             
1 42811U 17039J   26204.41901312  .00000225  00000+0  73289-4 0  9992
2 42811  86.3974   9.9981 0002309  92.9043 267.2417 14.34219571475172
IRIDIUM 121             
1 42812U 17039K   26204.37753418  .00000039  00000+0  69815-5 0  9994
2 42812  86.4002 338.5452 0002264  93.2203 266.9252 14.34217861475018
IRIDIUM 133             
1 42955U 17061A   26204.86933701  .00000156  00000+0  48515-4 0  9999
2 42955  86.3976   9.9286 0002194  91.8758 268.2689 14.34218214460038
IRIDIUM 100             
1 42956U 17061B   26204.44438308  .00000071  00000+0  18137-4 0  9990
2 42956  86.3974  10.0239 0002222  91.0881 269.0569 14.34218477459977
IRIDIUM 122             
1 42957U 17061C   26204.76151331  .00000207  00000+0  67030-4 0  9991
2 42957  86.3975   9.8916 0002124  92.3061 267.8378 14.34218291460028
IRIDIUM 129             
1 42958U 17061D   26204.85665623  .00000221  00000+0  71906-4 0  9999
2 42958  86.3976   9.9191 0002043  87.3163 272.8267 14.34217781460052
IRIDIUM 119             
1 42959U 17061E   26204.82494102  .00000181  00000+0  57552-4 0  9995
2 42959  86.3975   9.9283 0002081  91.0072 269.1362 14.34218314460066
IRIDIUM 107             
1 42960U 17061F   26204.42535550  .00000152  00000+0  47171-4 0  9990
2 42960  86.3978  10.1170 0002198  97.5071 262.6374 14.34218460460017
IRIDIUM 132             
1 42961U 17061G   26204.43169837  .00000199  00000+0  64009-4 0  9993
2 42961  86.3975  10.0935 0002185  91.5087 268.6359 14.34219067460013
IRIDIUM 136             
1 42962U 17061H   26204.39364242  .00000132  00000+0  40084-4 0  9990
2 42962  86.3978  10.1160 0002200  90.7011 269.4437 14.34217979460021
IRIDIUM 139             
1 42963U 17061J   26204.39998464  .00000188  00000+0  59893-4 0  9999
2 42963  86.3978  10.1762 0002268  91.8928 268.2528 14.34219447460034
IRIDIUM 125             
1 42964U 17061K   26204.45706682  .00000112  00000+0  32911-4 0  9995
2 42964  86.3978  10.2140 0001769 100.7820 259.3575 14.34219026460050
IRIDIUM 135             
1 43070U 17083A   26204.71026841  .00000008  00000+0 -41996-5 0  9998
2 43070  86.3985 306.7498 0002129  95.3508 264.7931 14.34217541449388
